EUTELSAT 7A             
1 28187U 04008A   26004.36056478  .00000099  00000+0  00000+0 0  9995
2 28187   5.4153  73.9887 0001506 241.5684 138.9940  1.00271257 79713
EUTELSAT 174A           
1 28924U 05052A   26004.42261851  .00000007  00000+0  00000+0 0  9993
2 28924   3.8048  78.5811 0006318 208.3850 143.1772  1.00272207 50689
EUTELSAT HOTBIRD 13B    
1 29270U 06032A   26004.25205742  .00000156  00000+0  00000+0 0  9990
2 29270   1.2390  84.1556 0003587 204.9047 298.6267  1.00273197 45666
EUTELSAT HOTBIRD 13C    
1 33459U 08065A   26004.44948537 -.00000284  00000+0  00000+0 0  9992
2 33459   2.5302  81.1632 0003708 205.7577 288.6276  1.00268901 45702
EUTELSAT 36B            
1 36101U 09065A   26004.46950551  .00000113  00000+0  00000+0 0  9991
2 36101   0.0819  59.2661 0005779 223.6127  40.7156  1.00269229 59065
EUTELSAT KA-SAT 9A      
1 37258U 10069A   26004.38977166  .00000063  00000+0  00000+0 0  9997
2 37258   0.0509 338.2084 0001595 200.0025  75.1063  1.00273419 42362
EUTELSAT 7 WEST A       
1 37816U 11051A   26004.38673829 -.00000060  00000+0  00000+0 0  9996
2 37816   0.0647  16.4039 0004949 223.3679 356.1327  1.00271463 52238
EUTELSAT 16A            
1 37836U 11057A   26004.32000453  .00000104  00000+0  00000+0 0  9993
2 37836   0.0571  14.6194 0005505 270.3868 310.1168  1.00270012  5688
